[{"OBJECT_NAME":"NUSAT-35 (WILLIAMINA)","OBJECT_ID":"2023-001AR","EPOCH":"2026-03-09T22:28:40.425600","MEAN_MOTION":15.3245616,"ECCENTRICITY":0.00136635,"INCLINATION":97.1993,"RA_OF_ASC_NODE":124.278,"ARG_OF_PERICENTER":97.0313,"MEAN_ANOMALY":263.2484,"EPHEMERIS_TYPE":0,"CLASSIFICATION_TYPE":"U","NORAD_CAT_ID":55048,"ELEMENT_SET_NO":999,"REV_AT_EPOCH":17719,"BSTAR":0.00053479647,"MEAN_MOTION_DOT":0.0001675,"MEAN_MOTION_DDOT":0},{"OBJECT_NAME":"STARLINK-35623","OBJECT_ID":"2025-237AA","EPOCH":"2026-03-09T05:04:24.841632","MEAN_MOTION":15.3019046,"ECCENTRICITY":0.0001058,"INCLINATION":53.1591,"RA_OF_ASC_NODE":42.1028,"ARG_OF_PERICENTER":90.3957,"MEAN_ANOMALY":269.7165,"EPHEMERIS_TYPE":0,"CLASSIFICATION_TYPE":"U","NORAD_CAT_ID":66138,"ELEMENT_SET_NO":999,"REV_AT_EPOCH":2253,"BSTAR":0.0013411717,"MEAN_MOTION_DOT":0.00039562,"MEAN_MOTION_DDOT":0}]
